[
  {
    "OBJECT_NAME": "STARLINK-33829",
    "OBJECT_ID": "25071D",
    "EPOCH": "2025-11-11T07:11:57.970464",
    "MEAN_MOTION": 15.30208481,
    "ECCENTRICITY": 0.0001353,
    "INCLINATION": 53.162,
    "RA_OF_ASC_NODE": 329.8537,
    "ARG_OF_PERICENTER": 89.097,
    "MEAN_ANOMALY": 271.0185,
    "EPHEMERIS_TYPE": 0,
    "CLASSIFICATION_TYPE": "U",
    "NORAD_CAT_ID": 63496,
    "ELEMENT_SET_NO": 999,
    "REV_AT_EPOCH": 3458,
    "BSTAR": 0.0019638,
    "MEAN_MOTION_DOT": 0.00058276,
    "MEAN_MOTION_DDOT": 0.0,
    "TLE_LINE1": "1 63496U 25071D   25315.29997651  .00058276  00000+0  19638-2 0  9993",
    "TLE_LINE2": "2 63496  53.1620 329.8537 0001353  89.0970 271.0185 15.30208481 34585",
    "COMMENT": "Grouped by shell and plane from TLE"
  },
  {
    "OBJECT_NAME": "STARLINK-33815",
    "OBJECT_ID": "25071E",
    "EPOCH": "2025-11-11T07:37:47.663328",
    "MEAN_MOTION": 15.30203577,
    "ECCENTRICITY": 0.0001353,
    "INCLINATION": 53.1606,
    "RA_OF_ASC_NODE": 329.9638,
    "ARG_OF_PERICENTER": 83.0619,
    "MEAN_ANOMALY": 277.0536,
    "EPHEMERIS_TYPE": 0,
    "CLASSIFICATION_TYPE": "U",
    "NORAD_CAT_ID": 63497,
    "ELEMENT_SET_NO": 999,
    "REV_AT_EPOCH": 3464,
    "BSTAR": 0.00064289,
    "MEAN_MOTION_DOT": 0.00018731,
    "MEAN_MOTION_DDOT": 0.0,
    "TLE_LINE1": "1 63497U 25071E   25315.31791277  .00018731  00000+0  64289-3 0  9998",
    "TLE_LINE2": "2 63497  53.1606 329.9638 0001353  83.0619 277.0536 15.30203577 34641",
    "COMMENT": "Grouped by shell and plane from TLE"
  },
  {
    "OBJECT_NAME": "STARLINK-33833",
    "OBJECT_ID": "25071F",
    "EPOCH": "2025-11-11T07:25:38.347968",
    "MEAN_MOTION": 15.30218507,
    "ECCENTRICITY": 0.0001265,
    "INCLINATION": 53.1618,
    "RA_OF_ASC_NODE": 329.9098,
    "ARG_OF_PERICENTER": 84.5266,
    "MEAN_ANOMALY": 275.5879,
    "EPHEMERIS_TYPE": 0,
    "CLASSIFICATION_TYPE": "U",
    "NORAD_CAT_ID": 63498,
    "ELEMENT_SET_NO": 999,
    "REV_AT_EPOCH": 3464,
    "BSTAR": 0.00086276,
    "MEAN_MOTION_DOT": 0.00025295,
    "MEAN_MOTION_DDOT": 0.0,
    "TLE_LINE1": "1 63498U 25071F   25315.30947162  .00025295  00000+0  86276-3 0  9997",
    "TLE_LINE2": "2 63498  53.1618 329.9098 0001265  84.5266 275.5879 15.30218507 34643",
    "COMMENT": "Grouped by shell and plane from TLE"
  },
  {
    "OBJECT_NAME": "STARLINK-33534",
    "OBJECT_ID": "25071G",
    "EPOCH": "2025-11-11T07:19:33.810816",
    "MEAN_MOTION": 15.30211445,
    "ECCENTRICITY": 0.0001702,
    "INCLINATION": 53.1617,
    "RA_OF_ASC_NODE": 329.8864,
    "ARG_OF_PERICENTER": 65.961,
    "MEAN_ANOMALY": 294.1569,
    "EPHEMERIS_TYPE": 0,
    "CLASSIFICATION_TYPE": "U",
    "NORAD_CAT_ID": 63499,
    "ELEMENT_SET_NO": 999,
    "REV_AT_EPOCH": 3462,
    "BSTAR": 0.00052788,
    "MEAN_MOTION_DOT": 0.00015313,
    "MEAN_MOTION_DDOT": 0.0,
    "TLE_LINE1": "1 63499U 25071G   25315.30525244  .00015313  00000+0  52788-3 0  9992",
    "TLE_LINE2": "2 63499  53.1617 329.8864 0001702  65.9610 294.1569 15.30211445 34620",
    "COMMENT": "Grouped by shell and plane from TLE"
  },
  {
    "OBJECT_NAME": "STARLINK-33838",
    "OBJECT_ID": "25071H",
    "EPOCH": "2025-11-11T06:55:14.897568",
    "MEAN_MOTION": 15.30206506,
    "ECCENTRICITY": 0.000137,
    "INCLINATION": 53.1603,
    "RA_OF_ASC_NODE": 329.7784,
    "ARG_OF_PERICENTER": 89.4315,
    "MEAN_ANOMALY": 270.6842,
    "EPHEMERIS_TYPE": 0,
    "CLASSIFICATION_TYPE": "U",
    "NORAD_CAT_ID": 63500,
    "ELEMENT_SET_NO": 999,
    "REV_AT_EPOCH": 3443,
    "BSTAR": 0.00050283,
    "MEAN_MOTION_DOT": 0.00014565,
    "MEAN_MOTION_DDOT": 0.0,
    "TLE_LINE1": "1 63500U 25071H   25315.28836687  .00014565  00000+0  50283-3 0  9994",
    "TLE_LINE2": "2 63500  53.1603 329.7784 0001370  89.4315 270.6842 15.30206506 34436",
    "COMMENT": "Grouped by shell and plane from TLE"
  },
  {
    "OBJECT_NAME": "STARLINK-33818",
    "OBJECT_ID": "25071K",
    "EPOCH": "2025-11-11T06:50:41.254080",
    "MEAN_MOTION": 15.30195734,
    "ECCENTRICITY": 0.000151,
    "INCLINATION": 53.1609,
    "RA_OF_ASC_NODE": 329.76,
    "ARG_OF_PERICENTER": 93.2021,
    "MEAN_ANOMALY": 266.9152,
    "EPHEMERIS_TYPE": 0,
    "CLASSIFICATION_TYPE": "U",
    "NORAD_CAT_ID": 63502,
    "ELEMENT_SET_NO": 999,
    "REV_AT_EPOCH": 3464,
    "BSTAR": 0.0011542,
    "MEAN_MOTION_DOT": 0.00033976,
    "MEAN_MOTION_DDOT": 0.0,
    "TLE_LINE1": "1 63502U 25071K   25315.28519970  .00033976  00000+0  11542-2 0  9990",
    "TLE_LINE2": "2 63502  53.1609 329.7600 0001510  93.2021 266.9152 15.30195734 34649",
    "COMMENT": "Grouped by shell and plane from TLE"
  },
  {
    "OBJECT_NAME": "STARLINK-33825",
    "OBJECT_ID": "25071N",
    "EPOCH": "2025-11-11T06:37:00.721920",
    "MEAN_MOTION": 15.30208956,
    "ECCENTRICITY": 0.0001158,
    "INCLINATION": 53.159,
    "RA_OF_ASC_NODE": 329.7002,
    "ARG_OF_PERICENTER": 75.7721,
    "MEAN_ANOMALY": 284.3408,
    "EPHEMERIS_TYPE": 0,
    "CLASSIFICATION_TYPE": "U",
    "NORAD_CAT_ID": 63505,
    "ELEMENT_SET_NO": 999,
    "REV_AT_EPOCH": 3464,
    "BSTAR": 0.0016550999999999998,
    "MEAN_MOTION_DOT": 0.00048997,
    "MEAN_MOTION_DDOT": 0.0,
    "TLE_LINE1": "1 63505U 25071N   25315.27570280  .00048997  00000+0  16551-2 0  9997",
    "TLE_LINE2": "2 63505  53.1590 329.7002 0001158  75.7721 284.3408 15.30208956 34646",
    "COMMENT": "Grouped by shell and plane from TLE"
  },
  {
    "OBJECT_NAME": "STARLINK-33792",
    "OBJECT_ID": "25071P",
    "EPOCH": "2025-11-11T06:43:05.284128",
    "MEAN_MOTION": 15.30226156,
    "ECCENTRICITY": 0.0001135,
    "INCLINATION": 53.1604,
    "RA_OF_ASC_NODE": 329.7217,
    "ARG_OF_PERICENTER": 95.1301,
    "MEAN_ANOMALY": 264.983,
    "EPHEMERIS_TYPE": 0,
    "CLASSIFICATION_TYPE": "U",
    "NORAD_CAT_ID": 63506,
    "ELEMENT_SET_NO": 999,
    "REV_AT_EPOCH": 3459,
    "BSTAR": 0.0011967,
    "MEAN_MOTION_DOT": 0.00035282,
    "MEAN_MOTION_DDOT": 0.0,
    "TLE_LINE1": "1 63506U 25071P   25315.27992227  .00035282  00000+0  11967-2 0  9996",
    "TLE_LINE2": "2 63506  53.1604 329.7217 0001135  95.1301 264.9830 15.30226156 34595",
    "COMMENT": "Grouped by shell and plane from TLE"
  },
  {
    "OBJECT_NAME": "STARLINK-33843",
    "OBJECT_ID": "25071Q",
    "EPOCH": "2025-11-11T07:10:26.001984",
    "MEAN_MOTION": 15.3022214,
    "ECCENTRICITY": 0.0001541,
    "INCLINATION": 53.1615,
    "RA_OF_ASC_NODE": 329.8102,
    "ARG_OF_PERICENTER": 80.3071,
    "MEAN_ANOMALY": 279.8104,
    "EPHEMERIS_TYPE": 0,
    "CLASSIFICATION_TYPE": "U",
    "NORAD_CAT_ID": 63507,
    "ELEMENT_SET_NO": 999,
    "REV_AT_EPOCH": 3462,
    "BSTAR": 0.00078783,
    "MEAN_MOTION_DOT": 0.00023063,
    "MEAN_MOTION_DDOT": 0.0,
    "TLE_LINE1": "1 63507U 25071Q   25315.29891206  .00023063  00000+0  78783-3 0  9998",
    "TLE_LINE2": "2 63507  53.1615 329.8102 0001541  80.3071 279.8104 15.30222140 34625",
    "COMMENT": "Grouped by shell and plane from TLE"
  },
  {
    "OBJECT_NAME": "STARLINK-33809",
    "OBJECT_ID": "25071R",
    "EPOCH": "2025-11-11T06:53:43.176192",
    "MEAN_MOTION": 15.30205817,
    "ECCENTRICITY": 0.0001219,
    "INCLINATION": 53.1601,
    "RA_OF_ASC_NODE": 329.7372,
    "ARG_OF_PERICENTER": 75.0238,
    "MEAN_ANOMALY": 285.0898,
    "EPHEMERIS_TYPE": 0,
    "CLASSIFICATION_TYPE": "U",
    "NORAD_CAT_ID": 63508,
    "ELEMENT_SET_NO": 999,
    "REV_AT_EPOCH": 3458,
    "BSTAR": 0.00039405,
    "MEAN_MOTION_DOT": 0.00011331,
    "MEAN_MOTION_DDOT": 0.0,
    "TLE_LINE1": "1 63508U 25071R   25315.28730528  .00011331  00000+0  39405-3 0  9990",
    "TLE_LINE2": "2 63508  53.1601 329.7372 0001219  75.0238 285.0898 15.30205817 34583",
    "COMMENT": "Grouped by shell and plane from TLE"
  },
  {
    "OBJECT_NAME": "STARLINK-33678",
    "OBJECT_ID": "25071S",
    "EPOCH": "2025-11-11T07:16:31.028160",
    "MEAN_MOTION": 15.30187906,
    "ECCENTRICITY": 0.0001878,
    "INCLINATION": 53.1619,
    "RA_OF_ASC_NODE": 329.8354,
    "ARG_OF_PERICENTER": 55.3361,
    "MEAN_ANOMALY": 304.7817,
    "EPHEMERIS_TYPE": 0,
    "CLASSIFICATION_TYPE": "U",
    "NORAD_CAT_ID": 63509,
    "ELEMENT_SET_NO": 999,
    "REV_AT_EPOCH": 3437,
    "BSTAR": 0.0006579000000000001,
    "MEAN_MOTION_DOT": 0.00019169,
    "MEAN_MOTION_DDOT": 0.0,
    "TLE_LINE1": "1 63509U 25071S   25315.30313690  .00019169  00000+0  65790-3 0  9994",
    "TLE_LINE2": "2 63509  53.1619 329.8354 0001878  55.3361 304.7817 15.30187906 34378",
    "COMMENT": "Grouped by shell and plane from TLE"
  },
  {
    "OBJECT_NAME": "STARLINK-33804",
    "OBJECT_ID": "25071U",
    "EPOCH": "2025-11-11T07:40:49.549152",
    "MEAN_MOTION": 15.30199548,
    "ECCENTRICITY": 0.000126,
    "INCLINATION": 53.161,
    "RA_OF_ASC_NODE": 329.9362,
    "ARG_OF_PERICENTER": 96.5544,
    "MEAN_ANOMALY": 263.56,
    "EPHEMERIS_TYPE": 0,
    "CLASSIFICATION_TYPE": "U",
    "NORAD_CAT_ID": 63511,
    "ELEMENT_SET_NO": 999,
    "REV_AT_EPOCH": 3427,
    "BSTAR": 0.0018976000000000002,
    "MEAN_MOTION_DOT": 0.00056268,
    "MEAN_MOTION_DDOT": 0.0,
    "TLE_LINE1": "1 63511U 25071U   25315.32001793  .00056268  00000+0  18976-2 0  9991",
    "TLE_LINE2": "2 63511  53.1610 329.9362 0001260  96.5544 263.5600 15.30199548 34273",
    "COMMENT": "Grouped by shell and plane from TLE"
  },
  {
    "OBJECT_NAME": "STARLINK-33751",
    "OBJECT_ID": "25071V",
    "EPOCH": "2025-11-11T07:31:42.367584",
    "MEAN_MOTION": 15.30213081,
    "ECCENTRICITY": 0.000102,
    "INCLINATION": 53.161,
    "RA_OF_ASC_NODE": 329.8956,
    "ARG_OF_PERICENTER": 99.4164,
    "MEAN_ANOMALY": 260.6952,
    "EPHEMERIS_TYPE": 0,
    "CLASSIFICATION_TYPE": "U",
    "NORAD_CAT_ID": 63512,
    "ELEMENT_SET_NO": 999,
    "REV_AT_EPOCH": 3462,
    "BSTAR": 0.00090461,
    "MEAN_MOTION_DOT": 0.00026539,
    "MEAN_MOTION_DDOT": 0.0,
    "TLE_LINE1": "1 63512U 25071V   25315.31368481  .00026539  00000+0  90461-3 0  9999",
    "TLE_LINE2": "2 63512  53.1610 329.8956 0001020  99.4164 260.6952 15.30213081 34622",
    "COMMENT": "Grouped by shell and plane from TLE"
  }
]